NUSHSAT1                
1 63211U 25052B   26068.64700493  .00023034  00000+0  74857-3 0  9997
2 63211  97.4095 325.7239 0005501  84.7512 275.4357 15.31903202 54882
STARLINK-34261          
1 64764U 25147K   26068.70437428  .00023719  00000+0  81041-3 0  9991
2 64764  53.1576 242.7033 0000844  89.4363 270.6735 15.30200016 38791
